{"type": "FeatureCollection", "features": [ {"type": "Feature", "properties": {"norad_id": 54234, "name": "NOAA 21 (JPSS-2)", "group": "weather", "lat": -81.2109066487579, "lon": 15.433439676358043, "alt_km": 834.7892728463621, "timestamp": "2025-12-20T11:30:28.013744+00:00", "meta": {"OBJECT_NAME": "NOAA 21 (JPSS-2)", "OBJECT_ID": "2022-150A", "EPOCH": "2025-12-20T03:28:08.872032", "MEAN_MOTION": 14.19526063, "ECCENTRICITY": 0.0001898, "INCLINATION": 98.7472, "RA_OF_ASC_NODE": 290.3607, "ARG_OF_PERICENTER": 23.4059, "MEAN_ANOMALY": 336.7203, "EPHEMERIS_TYPE": 0, "CLASSIFICATION_TYPE": "U", "NORAD_CAT_ID": 54234, "ELEMENT_SET_NO": 999, "REV_AT_EPOCH": 16114, "BSTAR": 4.2249e-05, "MEAN_MOTION_DOT": 4.5e-07, "MEAN_MOTION_DDOT": 0}, "tle": {"line1": "1 54234U 22150A   25354.14454713  .00000045  00000+0  42249-4 0  9999", "line2": "2 54234  98.7472 290.3607 0001898  23.4059 336.7203 14.19526063161147"}}, "geometry": {"type": "Point", "coordinates": [15.433439676358043, -81.2109066487579]}}, {"type": "Feature", "properties": {"norad_id": 54743, "name": "METEOSAT-12 (MTG-I1)", "group": "weather", "lat": -0.6077445335660042, "lon": -98.38978101447641, "alt_km": 35780.2203205507, "timestamp": "2025-12-20T11:30:28.013757+00:00", "meta": {"OBJECT_NAME": "METEOSAT-12 (MTG-I1)", "OBJECT_ID": "2022-170C", "EPOCH": "2025-12-20T03:48:38.814048", "MEAN_MOTION": 1.00270538, "ECCENTRICITY": 0.0001483, "INCLINATION": 0.6942, "RA_OF_ASC_NODE": 24.8229, "ARG_OF_PERICENTER": 239.6074, "MEAN_ANOMALY": 241.4222, "EPHEMERIS_TYPE": 0, "CLASSIFICATION_TYPE": "U", "NORAD_CAT_ID": 54743, "ELEMENT_SET_NO": 999, "REV_AT_EPOCH": 1118, "BSTAR": 0, "MEAN_MOTION_DOT": 1.6e-07, "MEAN_MOTION_DDOT": 0}, "tle": {"line1": "1 54743U 22170C   25354.15878257  .00000016  00000+0  00000+0 0  9992", "line2": "2 54743   0.6942  24.8229 0001483 239.6074 241.4222  1.00270538 11184"}}, "geometry": {"type": "Point", "coordinates": [-98.38978101447641, -0.6077445335660042]}}, {"type": "Feature", "properties": {"norad_id": 55973, "name": "TIANMU-1 03", "group": "weather", "lat": -23.310042615109122, "lon": 160.60673502729736, "alt_km": 447.0259465741401, "timestamp": "2025-12-20T11:30:28.013769+00:00", "meta": {"OBJECT_NAME": "TIANMU-1 03", "OBJECT_ID": "2023-039A", "EPOCH": "2025-12-20T03:49:04.919808", "MEAN_MOTION": 15.4112696, "ECCENTRICITY": 0.0004079, "INCLINATION": 97.5104, "RA_OF_ASC_NODE": 157.0186, "ARG_OF_PERICENTER": 39.7649, "MEAN_ANOMALY": 320.3895, "EPHEMERIS_TYPE": 0, "CLASSIFICATION_TYPE": "U", "NORAD_CAT_ID": 55973, "ELEMENT_SET_NO": 999, "REV_AT_EPOCH": 15320, "BSTAR": 0.00026493, "MEAN_MOTION_DOT": 0.00010887, "MEAN_MOTION_DDOT": 0}, "tle": {"line1": "1 55973U 23039A   25354.15908472  .00010887  00000+0  26493-3 0  9991", "line2": "2 55973  97.5104 157.0186 0004079  39.7649 320.3895 15.41126960153209"}}, "geometry": {"type": "Point", "coordinates": [160.60673502729736, -23.310042615109122]}}, {"type": "Feature", "properties": {"norad_id": 55974, "name": "TIANMU-1 04", "group": "weather", "lat": 77.43553810152939, "lon": 12.792838284453673, "alt_km": 433.2585062413691, "timestamp": "2025-12-20T11:30:28.013779+00:00", "meta": {"OBJECT_NAME": "TIANMU-1 04", "OBJECT_ID": "2023-039B", "EPOCH": "2025-12-20T04:50:37.228992", "MEAN_MOTION": 15.41468826, "ECCENTRICITY": 0.0004685, "INCLINATION": 97.5036, "RA_OF_ASC_NODE": 156.2506, "ARG_OF_PERICENTER": 33.8933, "MEAN_ANOMALY": 326.2612, "EPHEMERIS_TYPE": 0, "CLASSIFICATION_TYPE": "U", "NORAD_CAT_ID": 55974, "ELEMENT_SET_NO": 999, "REV_AT_EPOCH": 15321, "BSTAR": 0.00026656, "MEAN_MOTION_DOT": 0.00011081, "MEAN_MOTION_DDOT": 0}, "tle": {"line1": "1 55974U 23039B   25354.20181978  .00011081  00000+0  26656-3 0  9990", "line2": "2 55974  97.5036 156.2506 0004685  33.8933 326.2612 15.41468826153218"}}, "geometry": {"type": "Point", "coordinates": [12.792838284453673, 77.43553810152939]}}, {"type": "Feature", "properties": {"norad_id": 55975, "name": "TIANMU-1 05", "group": "weather", "lat": 57.78658365242766, "lon": -10.888165219462874, "alt_km": 436.142249607391, "timestamp": "2025-12-20T11:30:28.013789+00:00", "meta": {"OBJECT_NAME": "TIANMU-1 05", "OBJECT_ID": "2023-039C", "EPOCH": "2025-12-20T04:44:59.780832", "MEAN_MOTION": 15.41085208, "ECCENTRICITY": 0.000413, "INCLINATION": 97.5082, "RA_OF_ASC_NODE": 156.7393, "ARG_OF_PERICENTER": 58.1006, "MEAN_ANOMALY": 302.0641, "EPHEMERIS_TYPE": 0, "CLASSIFICATION_TYPE": "U", "NORAD_CAT_ID": 55975, "ELEMENT_SET_NO": 999, "REV_AT_EPOCH": 15319, "BSTAR": 0.00026532, "MEAN_MOTION_DOT": 0.00010889, "MEAN_MOTION_DDOT": 0}, "tle": {"line1": "1 55975U 23039C   25354.19791413  .00010889  00000+0  26532-3 0  9998", "line2": "2 55975  97.5082 156.7393 0004130  58.1006 302.0641 15.41085208153195"}}, "geometry": {"type": "Point", "coordinates": [-10.888165219462874, 57.78658365242766]}}, {"type": "Feature", "properties": {"norad_id": 55976, "name": "TIANMU-1 06", "group": "weather", "lat": 82.46560219791881, "lon": 71.68106296343115, "alt_km": 431.75322161557233, "timestamp": "2025-12-20T11:30:28.013801+00:00", "meta": {"OBJECT_NAME": "TIANMU-1 06", "OBJECT_ID": "2023-039D", "EPOCH": "2025-12-20T04:53:23.518752", "MEAN_MOTION": 15.41520495, "ECCENTRICITY": 0.0004429, "INCLINATION": 97.5093, "RA_OF_ASC_NODE": 157.2166, "ARG_OF_PERICENTER": 52.4332, "MEAN_ANOMALY": 307.7317, "EPHEMERIS_TYPE": 0, "CLASSIFICATION_TYPE": "U", "NORAD_CAT_ID": 55976, "ELEMENT_SET_NO": 999, "REV_AT_EPOCH": 15321, "BSTAR": 0.00026585, "MEAN_MOTION_DOT": 0.0001107, "MEAN_MOTION_DDOT": 0}, "tle": {"line1": "1 55976U 23039D   25354.20374443  .00011070  00000+0  26585-3 0  9992", "line2": "2 55976  97.5093 157.2166 0004429  52.4332 307.7317 15.41520495153219"}}, "geometry": {"type": "Point", "coordinates": [71.68106296343115, 82.46560219791881]}}, {"type": "Feature", "properties": {"norad_id": 56232, "name": "FENGYUN 3G", "group": "weather", "lat": -27.094473473303438, "lon": 32.94987195465227, "alt_km": 402.8310650812555, "timestamp": "2025-12-20T11:30:28.013811+00:00", "meta": {"OBJECT_NAME": "FENGYUN 3G", "OBJECT_ID": "2023-055A", "EPOCH": "2025-12-20T02:51:53.924832", "MEAN_MOTION": 15.54060313, "ECCENTRICITY": 0.0009325, "INCLINATION": 49.9916, "RA_OF_ASC_NODE": 189.3605, "ARG_OF_PERICENTER": 181.8554, "MEAN_ANOMALY": 178.238, "EPHEMERIS_TYPE": 0, "CLASSIFICATION_TYPE": "U", "NORAD_CAT_ID": 56232, "ELEMENT_SET_NO": 999, "REV_AT_EPOCH": 15217, "BSTAR": 0.00032074, "MEAN_MOTION_DOT": 0.00020824, "MEAN_MOTION_DDOT": 0}, "tle": {"line1": "1 56232U 23055A   25354.11937413  .00020824  00000+0  32074-3 0  9995", "line2": "2 56232  49.9916 189.3605 0009325 181.8554 178.2380 15.54060313152174"}}, "geometry": {"type": "Point", "coordinates": [32.94987195465227, -27.094473473303438]}}, {"type": "Feature", "properties": {"norad_id": 57166, "name": "METEOR-M2 3", "group": "weather", "lat": -56.512418219213984, "lon": 61.164951940033056, "alt_km": 816.973133658018, "timestamp": "2025-12-20T11:30:28.013822+00:00", "meta": {"OBJECT_NAME": "METEOR-M2 3", "OBJECT_ID": "2023-091A", "EPOCH": "2025-12-20T05:01:55.233120", "MEAN_MOTION": 14.24026929, "ECCENTRICITY": 0.0003487, "INCLINATION": 98.6367, "RA_OF_ASC_NODE": 47.6183, "ARG_OF_PERICENTER": 346.4697, "MEAN_ANOMALY": 13.6388, "EPHEMERIS_TYPE": 0, "CLASSIFICATION_TYPE": "U", "NORAD_CAT_ID": 57166, "ELEMENT_SET_NO": 999, "REV_AT_EPOCH": 12904, "BSTAR": 2.2771e-05, "MEAN_MOTION_DOT": 9e-08, "MEAN_MOTION_DDOT": 0}, "tle": {"line1": "1 57166U 23091A   25354.20966705  .00000009  00000+0  22771-4 0  9995", "line2": "2 57166  98.6367  47.6183 0003487 346.4697  13.6388 14.24026929129040"}}, "geometry": {"type": "Point", "coordinates": [61.164951940033056, -56.512418219213984]}}, {"type": "Feature", "properties": {"norad_id": 57399, "name": "TIANMU-1 07", "group": "weather", "lat": 34.30488127021471, "lon": -130.83260849945435, "alt_km": 478.7430596062777, "timestamp": "2025-12-20T11:30:28.013832+00:00", "meta": {"OBJECT_NAME": "TIANMU-1 07", "OBJECT_ID": "2023-101A", "EPOCH": "2025-12-20T04:35:18.799584", "MEAN_MOTION": 15.28170587, "ECCENTRICITY": 0.0005307, "INCLINATION": 97.2867, "RA_OF_ASC_NODE": 43.877, "ARG_OF_PERICENTER": 62.5849, "MEAN_ANOMALY": 297.593, "EPHEMERIS_TYPE": 0, "CLASSIFICATION_TYPE": "U", "NORAD_CAT_ID": 57399, "ELEMENT_SET_NO": 999, "REV_AT_EPOCH": 13429, "BSTAR": 0.00018095, "MEAN_MOTION_DOT": 4.897e-05, "MEAN_MOTION_DDOT": 0}, "tle": {"line1": "1 57399U 23101A   25354.19118981  .00004897  00000+0  18095-3 0  9990", "line2": "2 57399  97.2867  43.8770 0005307  62.5849 297.5930 15.28170587134290"}}, "geometry": {"type": "Point", "coordinates": [-130.83260849945435, 34.30488127021471]}}, {"type": "Feature", "properties": {"norad_id": 57400, "name": "TIANMU-1 08", "group": "weather", "lat": -33.4044880539853, "lon": 48.795655812968526, "alt_km": 488.06353378800577, "timestamp": "2025-12-20T11:30:28.013844+00:00", "meta": {"OBJECT_NAME": "TIANMU-1 08", "OBJECT_ID": "2023-101B", "EPOCH": "2025-12-20T03:47:50.271936", "MEAN_MOTION": 15.28152757, "ECCENTRICITY": 0.0007264, "INCLINATION": 97.2856, "RA_OF_ASC_NODE": 43.6415, "ARG_OF_PERICENTER": 63.169, "MEAN_ANOMALY": 297.0292, "EPHEMERIS_TYPE": 0, "CLASSIFICATION_TYPE": "U", "NORAD_CAT_ID": 57400, "ELEMENT_SET_NO": 999, "REV_AT_EPOCH": 13428, "BSTAR": 0.00018813, "MEAN_MOTION_DOT": 5.093e-05, "MEAN_MOTION_DDOT": 0}, "tle": {"line1": "1 57400U 23101B   25354.15822074  .00005093  00000+0  18813-3 0  9991", "line2": "2 57400  97.2856  43.6415 0007264  63.1690 297.0292 15.28152757134284"}}, "geometry": {"type": "Point", "coordinates": [48.795655812968526, -33.4044880539853]}}]}